SPACEMOBILE-006         
1 67232U 25309A   26066.27453918  .00002718  00000+0  14736-3 0  9999
2 67232  52.9944  78.2345 0011048 173.4442 186.6698 15.17999551 11113
